{"type": "FeatureCollection", "features": [ {"type": "Feature", "properties": {"norad_id": 35744, "name": "IRIDIUM 33 DEB", "group": "iridium-33-debris", "lat": 84.43753856786311, "lon": 6.306323154071477, "alt_km": 653.6883305103756, "timestamp": "2025-12-13T13:34:35.426176+00:00", "meta": {"OBJECT_NAME": "IRIDIUM 33 DEB", "OBJECT_ID": "1997-051RX", "EPOCH": "2025-12-12T09:25:56.133120", "MEAN_MOTION": 14.7099084, "ECCENTRICITY": 0.00202544, "INCLINATION": 86.3288, "RA_OF_ASC_NODE": 325.5924, "ARG_OF_PERICENTER": 193.3769, "MEAN_ANOMALY": 166.6913, "EPHEMERIS_TYPE": 0, "CLASSIFICATION_TYPE": "U", "NORAD_CAT_ID": 35744, "ELEMENT_SET_NO": 999, "REV_AT_EPOCH": 87326, "BSTAR": 0.0017280488, "MEAN_MOTION_DOT": 0.00010659, "MEAN_MOTION_DDOT": 0}, "tle": {"line1": "1 35744U 97051RX  25346.39301080  .00010659  00000+0  17280-2 0  9999", "line2": "2 35744  86.3288 325.5924 0020254 193.3769 166.6913 14.70990840873261"}}, "geometry": {"type": "Point", "coordinates": [6.306323154071477, 84.43753856786311]}}, {"type": "Feature", "properties": {"norad_id": 35797, "name": "IRIDIUM 33 DEB", "group": "iridium-33-debris", "lat": -29.09115487658286, "lon": 151.63693551115398, "alt_km": 622.4139835555461, "timestamp": "2025-12-13T13:34:35.426185+00:00", "meta": {"OBJECT_NAME": "IRIDIUM 33 DEB", "OBJECT_ID": "1997-051SF", "EPOCH": "2025-12-12T05:51:50.415264", "MEAN_MOTION": 14.82743783, "ECCENTRICITY": 0.00133704, "INCLINATION": 86.3362, "RA_OF_ASC_NODE": 330.2007, "ARG_OF_PERICENTER": 149.5686, "MEAN_ANOMALY": 210.6315, "EPHEMERIS_TYPE": 0, "CLASSIFICATION_TYPE": "U", "NORAD_CAT_ID": 35797, "ELEMENT_SET_NO": 999, "REV_AT_EPOCH": 87333, "BSTAR": 0.0026694194, "MEAN_MOTION_DOT": 0.00021655, "MEAN_MOTION_DDOT": 0}, "tle": {"line1": "1 35797U 97051SF  25346.24433351  .00021655  00000+0  26694-2 0  9995", "line2": "2 35797  86.3362 330.2007 0013370 149.5686 210.6315 14.82743783873338"}}, "geometry": {"type": "Point", "coordinates": [151.63693551115398, -29.09115487658286]}}, {"type": "Feature", "properties": {"norad_id": 35806, "name": "IRIDIUM 33 DEB", "group": "iridium-33-debris", "lat": 78.7252407169177, "lon": 38.97116384960493, "alt_km": 683.1858401026138, "timestamp": "2025-12-13T13:34:35.426194+00:00", "meta": {"OBJECT_NAME": "IRIDIUM 33 DEB", "OBJECT_ID": "1997-051SQ", "EPOCH": "2025-12-10T20:56:47.284800", "MEAN_MOTION": 14.5731398, "ECCENTRICITY": 0.0016091, "INCLINATION": 86.344, "RA_OF_ASC_NODE": 21.4504, "ARG_OF_PERICENTER": 81.1516, "MEAN_ANOMALY": 279.1514, "EPHEMERIS_TYPE": 0, "CLASSIFICATION_TYPE": "U", "NORAD_CAT_ID": 35806, "ELEMENT_SET_NO": 999, "REV_AT_EPOCH": 86297, "BSTAR": 0.0016785, "MEAN_MOTION_DOT": 7.632e-05, "MEAN_MOTION_DDOT": 0}, "tle": {"line1": "1 35806U 97051SQ  25344.87276950  .00007632  00000+0  16785-2 0  9992", "line2": "2 35806  86.3440  21.4504 0016091  81.1516 279.1514 14.57313980862976"}}, "geometry": {"type": "Point", "coordinates": [38.97116384960493, 78.7252407169177]}}, {"type": "Feature", "properties": {"norad_id": 35809, "name": "IRIDIUM 33 DEB", "group": "iridium-33-debris", "lat": 41.598981693636475, "lon": 151.70585442637943, "alt_km": 641.1002380029349, "timestamp": "2025-12-13T13:34:35.426203+00:00", "meta": {"OBJECT_NAME": "IRIDIUM 33 DEB", "OBJECT_ID": "1997-051ST", "EPOCH": "2025-12-10T16:35:56.421600", "MEAN_MOTION": 14.75629145, "ECCENTRICITY": 0.00097103, "INCLINATION": 86.329, "RA_OF_ASC_NODE": 336.2813, "ARG_OF_PERICENTER": 251.0565, "MEAN_ANOMALY": 108.9602, "EPHEMERIS_TYPE": 0, "CLASSIFICATION_TYPE": "U", "NORAD_CAT_ID": 35809, "ELEMENT_SET_NO": 999, "REV_AT_EPOCH": 86777, "BSTAR": 0.0026432017, "MEAN_MOTION_DOT": 0.00018102, "MEAN_MOTION_DDOT": 0}, "tle": {"line1": "1 35809U 97051ST  25344.69162525  .00018102  00000+0  26432-2 0  9991", "line2": "2 35809  86.3290 336.2813 0009710 251.0565 108.9602 14.75629145867777"}}, "geometry": {"type": "Point", "coordinates": [151.70585442637943, 41.598981693636475]}}, {"type": "Feature", "properties": {"norad_id": 35846, "name": "IRIDIUM 33 DEB", "group": "iridium-33-debris", "lat": -3.098429729967298, "lon": -121.3149238952014, "alt_km": 738.7306280934972, "timestamp": "2025-12-13T13:34:35.426212+00:00", "meta": {"OBJECT_NAME": "IRIDIUM 33 DEB", "OBJECT_ID": "1997-051SW", "EPOCH": "2025-12-10T23:09:37.938816", "MEAN_MOTION": 14.43148066, "ECCENTRICITY": 0.0018649, "INCLINATION": 86.3748, "RA_OF_ASC_NODE": 59.598, "ARG_OF_PERICENTER": 175.7823, "MEAN_ANOMALY": 184.3539, "EPHEMERIS_TYPE": 0, "CLASSIFICATION_TYPE": "U", "NORAD_CAT_ID": 35846, "ELEMENT_SET_NO": 999, "REV_AT_EPOCH": 71303, "BSTAR": 0.00091839, "MEAN_MOTION_DOT": 3.109e-05, "MEAN_MOTION_DDOT": 0}, "tle": {"line1": "1 35846U 97051SW  25344.96502244  .00003109  00000+0  91839-3 0  9993", "line2": "2 35846  86.3748  59.5980 0018649 175.7823 184.3539 14.43148066713035"}}, "geometry": {"type": "Point", "coordinates": [-121.3149238952014, -3.098429729967298]}}, {"type": "Feature", "properties": {"norad_id": 35848, "name": "IRIDIUM 33 DEB", "group": "iridium-33-debris", "lat": 79.826572730233, "lon": 175.15987704192764, "alt_km": 625.9520445546323, "timestamp": "2025-12-13T13:34:35.426225+00:00", "meta": {"OBJECT_NAME": "IRIDIUM 33 DEB", "OBJECT_ID": "1997-051SY", "EPOCH": "2025-12-11T20:31:22.881216", "MEAN_MOTION": 14.78606603, "ECCENTRICITY": 0.0007707, "INCLINATION": 86.3908, "RA_OF_ASC_NODE": 16.5221, "ARG_OF_PERICENTER": 192.3234, "MEAN_ANOMALY": 167.7799, "EPHEMERIS_TYPE": 0, "CLASSIFICATION_TYPE": "U", "NORAD_CAT_ID": 35848, "ELEMENT_SET_NO": 999, "REV_AT_EPOCH": 66677, "BSTAR": 0.0023841, "MEAN_MOTION_DOT": 0.00017502, "MEAN_MOTION_DDOT": 0}, "tle": {"line1": "1 35848U 97051SY  25345.85512594  .00017502  00000+0  23841-2 0  9992", "line2": "2 35848  86.3908  16.5221 0007707 192.3234 167.7799 14.78606603666775"}}, "geometry": {"type": "Point", "coordinates": [175.15987704192764, 79.826572730233]}}, {"type": "Feature", "properties": {"norad_id": 35850, "name": "IRIDIUM 33 DEB", "group": "iridium-33-debris", "lat": 65.71649699089286, "lon": -7.992815913747569, "alt_km": 629.3410851583931, "timestamp": "2025-12-13T13:34:35.426239+00:00", "meta": {"OBJECT_NAME": "IRIDIUM 33 DEB", "OBJECT_ID": "1997-051TA", "EPOCH": "2025-12-06T07:30:15.621984", "MEAN_MOTION": 14.78601393, "ECCENTRICITY": 0.00083892, "INCLINATION": 86.3487, "RA_OF_ASC_NODE": 347.1693, "ARG_OF_PERICENTER": 210.267, "MEAN_ANOMALY": 149.8067, "EPHEMERIS_TYPE": 0, "CLASSIFICATION_TYPE": "U", "NORAD_CAT_ID": 35850, "ELEMENT_SET_NO": 999, "REV_AT_EPOCH": 71262, "BSTAR": 0.0028291764, "MEAN_MOTION_DOT": 0.00020775, "MEAN_MOTION_DDOT": 0}, "tle": {"line1": "1 35850U 97051TA  25340.31268081  .00020775  00000+0  28292-2 0  9991", "line2": "2 35850  86.3487 347.1693 0008389 210.2670 149.8067 14.78601393712623"}}, "geometry": {"type": "Point", "coordinates": [-7.992815913747569, 65.71649699089286]}}, {"type": "Feature", "properties": {"norad_id": 35915, "name": "IRIDIUM 33 DEB", "group": "iridium-33-debris", "lat": 11.22160332644565, "lon": -16.692852404962313, "alt_km": 635.4087822168376, "timestamp": "2025-12-13T13:34:35.426253+00:00", "meta": {"OBJECT_NAME": "IRIDIUM 33 DEB", "OBJECT_ID": "1997-051TY", "EPOCH": "2025-12-07T18:02:16.498176", "MEAN_MOTION": 14.80542095, "ECCENTRICITY": 0.00101746, "INCLINATION": 86.3429, "RA_OF_ASC_NODE": 345.2367, "ARG_OF_PERICENTER": 205.9072, "MEAN_ANOMALY": 154.1641, "EPHEMERIS_TYPE": 0, "CLASSIFICATION_TYPE": "U", "NORAD_CAT_ID": 35915, "ELEMENT_SET_NO": 999, "REV_AT_EPOCH": 8012, "BSTAR": 0.0030076362, "MEAN_MOTION_DOT": 0.00023136, "MEAN_MOTION_DDOT": 0}, "tle": {"line1": "1 35915U 97051TY  25341.75157984  .00023136  00000+0  30076-2 0  9998", "line2": "2 35915  86.3429 345.2367 0010174 205.9072 154.1641 14.80542095 80126"}}, "geometry": {"type": "Point", "coordinates": [-16.692852404962313, 11.22160332644565]}}, {"type": "Feature", "properties": {"norad_id": 35918, "name": "IRIDIUM 33 DEB", "group": "iridium-33-debris", "lat": 77.2444363345629, "lon": 91.6031385703773, "alt_km": 714.0241804712687, "timestamp": "2025-12-13T13:34:35.426269+00:00", "meta": {"OBJECT_NAME": "IRIDIUM 33 DEB", "OBJECT_ID": "1997-051UB", "EPOCH": "2025-12-13T00:32:30.278688", "MEAN_MOTION": 14.51250424, "ECCENTRICITY": 0.00275912, "INCLINATION": 86.401, "RA_OF_ASC_NODE": 75.694, "ARG_OF_PERICENTER": 168.7296, "MEAN_ANOMALY": 313.6735, "EPHEMERIS_TYPE": 0, "CLASSIFICATION_TYPE": "U", "NORAD_CAT_ID": 35918, "ELEMENT_SET_NO": 999, "REV_AT_EPOCH": 85211, "BSTAR": 0.0017263949, "MEAN_MOTION_DOT": 6.917e-05, "MEAN_MOTION_DDOT": 0}, "tle": {"line1": "1 35918U 97051UB  25347.02257267  .00006917  00000+0  17264-2 0  9994", "line2": "2 35918  86.4010  75.6940 0027591 168.7296 313.6735 14.51250424852114"}}, "geometry": {"type": "Point", "coordinates": [91.6031385703773, 77.2444363345629]}}, {"type": "Feature", "properties": {"norad_id": 35929, "name": "IRIDIUM 33 DEB", "group": "iridium-33-debris", "lat": -19.25164724210859, "lon": -49.0440633131249, "alt_km": 556.8809998417382, "timestamp": "2025-12-13T13:34:35.426285+00:00", "meta": {"OBJECT_NAME": "IRIDIUM 33 DEB", "OBJECT_ID": "1997-051UN", "EPOCH": "2025-12-12T04:05:36.007296", "MEAN_MOTION": 15.02344569, "ECCENTRICITY": 0.00182618, "INCLINATION": 86.3329, "RA_OF_ASC_NODE": 312.9007, "ARG_OF_PERICENTER": 38.7849, "MEAN_ANOMALY": 321.4691, "EPHEMERIS_TYPE": 0, "CLASSIFICATION_TYPE": "U", "NORAD_CAT_ID": 35929, "ELEMENT_SET_NO": 999, "REV_AT_EPOCH": 87771, "BSTAR": 0.0034493964, "MEAN_MOTION_DOT": 0.0004602, "MEAN_MOTION_DDOT": 0}, "tle": {"line1": "1 35929U 97051UN  25346.17055564  .00046020  00000+0  34494-2 0  9990", "line2": "2 35929  86.3329 312.9007 0018261  38.7849 321.4691 15.02344569877715"}}, "geometry": {"type": "Point", "coordinates": [-49.0440633131249, -19.25164724210859]}}]}